{"fetched_at":"2026-04-07T02:14:38Z","count":15750,"tles":[{"name":"PROGRESS-MS 33","line1":"1 68319U 26058A   26096.00498673  .00007825  00000+0  15107-3 0  9996","line2":"2 68319  51.6327 297.3095 0006349 277.1679  82.8588 15.48794122  1899","category":"Other"}]}