[ {"OBJECT_NAME": "PROGRESS-MS 33", "OBJECT_ID": "2026-058A", "EPOCH": "2026-04-06T00:07:10.853472", "MEAN_MOTION": 15.48794122, "ECCENTRICITY": 0.00063498, "INCLINATION": 51.6327, "RA_OF_ASC_NODE": 297.3095, "ARG_OF_PERICENTER": 277.1679, "MEAN_ANOMALY": 82.8588, "EPHEMERIS_TYPE": 0, "CLASSIFICATION_TYPE": "U", "NORAD_CAT_ID": 68319, "ELEMENT_SET_NO": 999, "REV_AT_EPOCH": 189, "BSTAR": 0.00015106948, "MEAN_MOTION_DOT": 7.825e-05, "MEAN_MOTION_DDOT": 0}]